SCD 1                   
1 22490U 93009B   26163.90508391  .00000325  00000+0  37996-4 0  9998
2 22490  24.9684 234.0175 0042114  92.6653  67.7868 14.46117361760499
TECHSAT 1B (GO-32)      
1 25397U 98043D   26163.92005205  .00000055  00000+0  44031-4 0  9996
2 25397  99.0066 156.5710 0000824 172.5768 187.5423 14.24427656450722
SCD 2                   
1 25504U 98060A   26164.15409937  .00000382  00000+0  55754-4 0  9998
2 25504  24.9947  97.0290 0016973  80.8885 302.2821 14.45524442459745
DLR-TUBSAT              
1 25757U 99029B   26164.22890721  .00000082  00000+0  31938-4 0  9992
2 25757  98.6695 159.6028 0014308   7.2294 352.9104 14.52425962432678
TERRA                   
1 25994U 99068A   26164.25360138  .00000362  00000+0  82662-4 0  9996
2 25994  97.9457 213.9557 0001280 204.7308 230.1329 14.61100215409036
MAROC-TUBSAT            
1 27004U 01056D   26164.22844058 -.00000020  00000+0  30353-4 0  9997
2 27004  99.8079 341.0134 0020204 151.1684  24.7261 13.70262332225647
AQUA                    
1 27424U 02022A   26164.23394086  .00000726  00000+0  15420-3 0  9998
2 27424  98.4276 133.4379 0001256  53.2719  71.0169 14.62152668282690
SHIYAN-1 (SY-1)         
1 28220U 04012A   26164.20380275  .00013221  00000+0  40836-3 0  9999
2 28220  97.8698 242.0132 0005945  46.1275 314.0457 15.33664939210483
AURA                    
1 28376U 04026A   26164.22017056  .00000713  00000+0  15418-3 0  9992
2 28376  98.3416 120.6407 0001257  73.0305 287.1034 14.61323603165637
IRS-P5 (CARTOSAT-1)     
1 28649U 05017A   26164.32020879  .00001200  00000+0  12656-3 0  9997
2 28649  97.5309 187.5601 0002683  84.6728 275.4797 14.91039903143240
SINAH 1                 
1 28893U 05043D   26164.29549855  .00000278  00000+0  62199-4 0  9995
2 28893  98.2854 298.5947 0013180 290.1981  69.7804 14.64155236 99958
RESURS-DK 1             
1 29228U 06021A   26164.20135643  .00002518  00000+0  14752-3 0  9992
2 29228  69.9338 349.8704 0006764 294.8137  65.2325 15.13201545101973
ARIRANG-2 (KOMPSAT-2)   
1 29268U 06031A   26164.34196968  .00000143  00000+0  35206-4 0  9999
2 29268  97.8306 348.9750 0015943  85.6129  35.9383 14.64657198 60919
LAPAN-TUBSAT            
1 29709U 07001A   26164.28140159  .00000495  00000+0  63299-4 0  9994
2 29709  98.1338 163.4168 0011591 192.4744 167.6185 14.85945764 50572
HAIYANG-1B              
1 31113U 07010A   26164.22927431  .00000076  00000+0  44805-4 0  9993
2 31113  98.3493 146.2279 0012768 208.5874 151.4611 14.31025965    78
COSMO-SKYMED 1          
1 31598U 07023A   26164.32526791  .00002377  00000+0  21131-3 0  9991
2 31598  97.8843 356.1492 0001035  93.5246 266.6094 14.97081804 29214
TERRASAR-X              
1 31698U 07026A   26163.44920635  .00000544  00000+0  29072-4 0  9999
2 31698  97.4452 171.2221 0001570  89.6160 270.5254 15.19153846 52509
WORLDVIEW-1 (WV-1)      
1 32060U 07041A   26164.28752893  .00006097  00000+0  25293-3 0  9991
2 32060  97.3871 284.0873 0002631  32.6830 327.4570 15.24226035 42288
YAOGAN-3                
1 32289U 07055A   26164.30148324  .00003286  00000+0  33998-3 0  9998
2 32289  97.8156 194.2181 0001972  87.4457 272.6987 14.90769157  5298
COSMO-SKYMED 2          
1 32376U 07059A   26164.31294294  .00000375  00000+0  53615-4 0  9993
2 32376  97.8885 347.9671 0001374  86.8999 273.2371 14.82152046  1435
RADARSAT-2              
1 32382U 07061A   26164.32935373  .00000465  00000+0  19729-3 0  9991
2 32382  98.5778 171.3171 0001311  81.4127 278.7204 14.29982224965401
CARTOSAT-2A             
1 32783U 08021A   26164.32611495  .00000610  00000+0  88749-4 0  9990
2 32783  97.7642 213.1665 0013026 120.0417 240.2089 14.79233421978231
HUANJING 1A (HJ-1A)     
1 33320U 08041A   26164.25551098  .00001855  00000+0  22840-3 0  9995
2 33320  97.6675 150.2458 0019670 147.0090 213.2357 14.83979890957824
HUANJING 1B (HJ-1B)     
1 33321U 08041B   26164.29025917  .00000890  00000+0  11381-3 0  9992
2 33321  97.6514 153.4629 0035631 193.8533 166.1707 14.83311604957837
GEOEYE 1                
1 33331U 08042A   26164.25806749  .00000396  00000+0  83307-4 0  9999
2 33331  98.1235 238.2390 0005508  79.0976 281.0846 14.64722290949576
THEOS                   
1 33396U 08049A   26164.23470312 -.00000244  00000+0 -94821-4 0  9995
2 33396  98.5578 221.6467 0001271  81.5924 278.5397 14.20131391917403
COSMO-SKYMED 3          
1 33412U 08054A   26164.29189854  .00003724  00000+0  25309-3 0  9992
2 33412  97.8285  22.7986 0014423 281.6353  78.3255 15.06925652956359
YAOGAN-4                
1 33446U 08061A   26164.05185014  .00000922  00000+0  11934-3 0  9991
2 33446  97.9309  97.5927 0015772  84.6471 275.6542 14.83192730945052
GOSAT (IBUKI)           
1 33492U 09002A   26164.25197353  .00001038  00000+0  19149-3 0  9994
2 33492  98.0884 275.3824 0001566  86.9048 273.2336 14.67542923930881
DEIMOS-1                
1 35681U 09041A   26164.32022900  .00000264  00000+0  46003-4 0  9992
2 35681  97.7395 321.7157 0001441 135.8076 224.3249 14.75232628906316
